NUSAT-1 (FRESCO)        
1 41557U 16033B   22332.86809917  .00017498  00000+0  44302-3 0  9999
2 41557  97.3905  71.3615 0010547 144.5284 351.9388 15.39750906362637
BEESAT-4                
1 41619U 16040W   22332.10540923  .00016908  00000+0  47415-3 0  9995
2 41619  97.1944  18.6919 0006445 243.5853 116.4730 15.36631204345803
CAS-2T & KS-1Q          
1 41847U 16066G   22332.12440767  .00000618  00000+0  10096-3 0  9999
2 41847  98.5321  36.4846 0363695  80.1648 284.0395 14.38923092317883
NAYIF-1 (EO-88)         
1 42017U 17008BX  22332.13228322  .00025851  00000+0  62043-3 0  9993
2 42017  97.2486  36.3277 0004540  35.1495 325.0051 15.41341355322229
ZHUHAI-1 02 (CAS-4B)    
1 42759U 17034B   22332.89339818  .00002788  00000+0  16604-3 0  9997
2 42759  43.0158 145.4789 0011229 253.4428 254.9761 15.13334570301258
ZHUHAI-1 01 (CAS-4A)    
1 42761U 17034D   22332.92093797  .00002631  00000+0  15704-3 0  9994
2 42761  43.0159 143.9938 0011552 256.2886 258.7698 15.13421967301268
MAX VALIER SAT          
1 42778U 17036P   22331.87921456  .00009035  00000+0  31180-3 0  9990
2 42778  97.1855   7.4818 0011867 102.2426 258.0144 15.30118876301865
RADFXSAT (FOX-1B)       
1 43017U 17073E   22332.64546986  .00005063  00000+0  37429-3 0  9994
2 43017  97.6531 220.0514 0244756   9.9535 350.6400 14.82705877271435
FOX-1D (AO-92)          
1 43137U 18004AC  22331.69349299  .00011166  00000+0  35021-3 0  9991
2 43137  97.3537  45.6075 0008134 134.9596 225.2307 15.33185679271328
DIWATA-2B               
1 43678U 18084H   22332.79233452  .00000430  00000+0  47641-4 0  9998
2 43678  97.9933 108.2553 0011009 101.1193 259.1288 14.92504966222367
ES'HAIL 2               
1 43700U 18090A   22332.39563191  .00000149  00000+0  00000+0 0  9993
2 43700   0.0166 287.7497 0000992 339.3670 328.4033  1.00270725 14916
FOX-1CLIFF (AO-95)      
1 43770U 18099N   22332.64007436  .00002440  00000+0  21470-3 0  9996
2 43770  97.6012  34.6404 0014947  86.2642 274.0290 14.97337543217574
ITASAT 1                
1 43786U 18099AE  22332.42256480  .00001516  00000+0  13514-3 0  9997
2 43786  97.6052  35.4278 0015978  78.9662 281.3356 14.97367260217582
JY1SAT (JO-97)          
1 43803U 18099AX  22331.70873693  .00002627  00000+0  22649-3 0  9991
2 43803  97.6000  34.5523 0015228  81.0956 279.1990 14.98058887217501
UWE-4                   
1 43880U 18111E   22331.98833417  .00002541  00000+0  21309-3 0  9998
2 43880  97.6559 235.4227 0011385 127.4931 232.7329 14.99218924212198
NEXUS (FO-99)           
1 43937U 19003F   22332.82394570  .00013593  00000+0  39518-3 0  9998
2 43937  97.1140   0.0880 0016279 286.7253  73.2205 15.35433949215153
PSAT2 (NO-104)          
1 44354U 19036R   22332.68670762  .00115128 -29043-5  58482-3 0  9995
2 44354  28.5193 101.8913 0148695  51.9971 309.3960 15.65514496190183
JAISAT-1                
1 44419U 19038F   22331.91314037  .00008935  00000+0  41110-3 0  9996
2 44419  97.6568 303.8456 0015734 289.9206  70.0333 15.20466739187869
DUCHIFAT-3              
1 44854U 19089C   22332.89325693  .00003524  00000+0  26666-3 0  9991
2 44854  36.9655 204.6395 0005865 114.4987 315.6407 15.02422806162665
CAS-6 (TIANQIN 1)       
1 44881U 19093C   22332.86869469  .00000496  00000+0  69158-4 0  9996
2 44881  97.8815  49.6298 0015293  16.4367 343.7340 14.81945583159120
RS-44 & BREEZE-KM R/B   
1 44909U 19096E   22332.13846317  .00000005  00000+0 -14948-4 0  9991
2 44909  82.5186 121.5435 0216488 297.1225  60.7943 12.79716661136494
ORBITAL FACTORY 2 (OF-2)
1 45113U 19071C   22332.69481968  .00051271  00000+0  68240-3 0  9993
2 45113  51.6352 325.4340 0011704  57.6176 302.5947 15.57566151158853
HUSKYSAT-1 (HO-107)     
1 45119U 19071J   22332.28932164  .00043434  00000+0  64302-3 0  9990
2 45119  51.6356 329.4401 0011339  52.4223 307.7795 15.54766411158750
BY70-2                  
1 45857U 20042B   22332.55682661  .00006440  00000+0  81289-3 0  9992
2 45857  97.9455  47.9779 0008882 304.8065  55.2324 14.82232434129742
SALSAT                  
1 46495U 20068K   22331.73542766  .00002403  00000+0  17163-3 0  9994
2 46495  97.7466 273.2920 0017781  84.1353 276.1900 15.05353971118747
BY70-3                  
1 46839U 20079N   22332.79402006  .00040472  00000+0  67193-3 0  9993
2 46839  97.1810  43.4911 0005192 101.9706  19.2053 15.51985934115637
RADFXSAT-2 (AO-109)     
1 47311U 21002C   22331.94368594  .00009539  00000+0  34355-3 0  9998
2 47311  60.6837 105.5271 0038008  75.4386 285.0914 15.28551033103434
UVSQ-SAT                
1 47438U 21006AB  22331.64224285  .00005508  00000+0  27456-3 0  9993
2 47438  97.4161  27.3225 0012778  71.2289 289.0330 15.17883663102018
DIY-1 (ARDUIQUBE)       
1 47963U 21022AH  22332.15887902  .00025371  00000+0  11711-2 0  9998
2 47963  97.5170 232.0932 0012440 296.0346  63.9608 15.20136312 91750
XW-3 (CAS-9)            
1 50466U 21131B   22332.80974733  .00000176  00000+0  72121-4 0  9992
2 50466  98.5696  49.8910 0004730  33.0892 327.0591 14.38582780 48540
TEVEL-3                 
1 50988U 22002E   22332.70862323  .00007676  00000+0  39133-3 0  9996
2 50988  97.4636  37.0274 0008537 206.2447 253.1032 15.17006251 48295
TEVEL-8                 
1 50989U 22002F   22332.71940911  .00007591  00000+0  38766-3 0  9995
2 50989  97.4647  37.0745 0008446 206.0482 252.7450 15.16949791 48290
TEVEL-5                 
1 50998U 22002Q   22332.74029166  .00007598  00000+0  38131-3 0  9991
2 50998  97.4633  37.2586 0010040 202.2597 253.3198 15.17549127 48317
TEVEL-6                 
1 50999U 22002R   22332.73944856  .00007573  00000+0  37999-3 0  9997
2 50999  97.4627  37.2540 0010220 201.6985 254.1045 15.17554986 48314
TEVEL-1                 
1 51013U 22002AF  22332.71390785  .00007633  00000+0  38951-3 0  9995
2 51013  97.4626  36.9999 0008501 206.0425 254.2972 15.16976430 48290
TEVEL-7                 
1 51062U 22002CG  22332.72142219  .00007613  00000+0  38882-3 0  9998
2 51062  97.4644  37.0575 0008516 205.4640 253.1570 15.16948101 48290
TEVEL-4                 
1 51063U 22002CH  22332.72273928  .00007581  00000+0  38733-3 0  9990
2 51063  97.4646  37.0530 0008631 204.7915 251.9602 15.16930947 48290
TEVEL-2                 
1 51069U 22002CP  22332.71033560  .00007687  00000+0  39197-3 0  9993
2 51069  97.4625  37.0090 0008397 206.8858 252.3510 15.17001390 48297
GREENCUBE               
1 53106U 22080B   22323.09002148 -.00000003  00000+0  00000+0 0  9995
2 53106  70.1752  32.7128 0008932 231.1104 128.8759  6.42557452  8251
YUZGU 9 (RS3S)          
1 53308U 98067TT  22332.29962689  .00116073  00000+0  10342-2 0  9991
2 53308  51.6354 237.1887 0008666 137.6207 222.5460 15.67547911 20260
YUZGU 7 (RS1S)          
1 53309U 98067TU  22332.34446948  .00122129  00000+0  10601-2 0  9990
2 53309  51.6348 236.7318 0009017 141.6246 218.5393 15.68161096 20220
YUZGU 11 (RS5S)         
1 53310U 98067TV  22332.80842510  .00088551  00000+0  78979-3 0  9991
2 53310  51.6353 234.5858 0008727 141.9703 218.1911 15.67641136 20321
YUZGU 12 (RS6S)         
1 53311U 98067TW  22332.32475311  .00129979  00000+0  10982-2 0  9999
2 53311  51.6347 236.5990 0008708 137.1855 222.9822 15.68793135 20274
TSIOLKOVSKY-RYAZAN 1 (*)
1 53312U 98067TX  22332.28238872  .00121482  00000+0  10699-2 0  9990
2 53312  51.6354 237.0738 0009068 141.5477 218.6167 15.67807362 20202
TSIOLKOVSKY-RYAZAN 2 (*)
1 53313U 98067TY  22332.34223027  .00120416  00000+0  10515-2 0  9997
2 53313  51.6358 236.7245 0008639 142.9712 217.1882 15.68025667 20261
YUZGU 10 (RS4S)         
1 53321U 98067TZ  22332.22760672  .00118033  00000+0  10389-2 0  9996
2 53321  51.6351 237.4569 0008844 139.1069 221.0592 15.67838113 20248
RS29S (SXC3-2110 CYCLO*)
1 53373U 22096D   22332.76004192  .00011012  00000+0  41654-3 0  9998
2 53373  97.4283 233.5024 0002929 103.9308 342.4415 15.27122355 16992
RS32S (SXC3-212 MONITO*)
1 53374U 22096E   22332.75018461  .00009891  00000+0  37372-3 0  9996
2 53374  97.4275 233.5061 0003048  93.4443 340.9738 15.27188597 16992
RS34S (SXC3-218 KUZBAS*)
1 53375U 22096F   22332.76191637  .00009044  00000+0  34596-3 0  9990
2 53375  97.4281 233.4944 0003034 101.9746 336.4277 15.26803951 16990
RS23S (SXC3-21 UTMN)    
1 53376U 22096G   22332.76127751  .00009333  00000+0  35618-3 0  9994
2 53376  97.4283 233.5015 0003107  98.5332 352.0565 15.26873388 16991
RS28S (SXC3-214 MIET-A*)
1 53377U 22096H   22332.75996098  .00008739  00000+0  33424-3 0  9994
2 53377  97.4287 233.5032 0003132  93.8986 353.9218 15.26819082 16992
RS26S (KAI-1)           
1 53378U 22096J   22332.76419061  .00007839  00000+0  30184-3 0  9996
2 53378  97.4283 233.4950 0003238  92.8570 353.7748 15.26631984 16991
RS19S (SXC3-219 ISOI)   
1 53381U 22096M   22332.79120094  .00009238  00000+0  34758-3 0  9994
2 53381  97.4286 233.6110 0006030  64.9486  20.7797 15.27335340 17003
RS21S (CUBESX-HSE-2)    
1 53383U 22096P   22332.72248466  .00009195  00000+0  34554-3 0  9999
2 53383  97.4283 233.5524 0006304  64.5660  19.9012 15.27376622 16999
RS30S (SXC3-217 SIREN)  
1 53384U 22096Q   22332.93003705  .00008418  00000+0  31799-3 0  9993
2 53384  97.4286 233.7515 0006334  62.6435  68.0818 15.27229941 17022
RS20S (GEOSCAN-EDELVEIS)
1 53385U 22096R   22332.69356684  .00011365  00000+0  41724-3 0  9998
2 53385  97.4276 233.5855 0006741  62.1639  21.5683 15.28083839 17029
RS33S (SXC3-215 VIZARD) 
1 53386U 22096S   22332.78384041  .00013597  00000+0  48689-3 0  9993
2 53386  97.4279 233.7515 0007542  62.9704 335.6308 15.28855297 17038
